[
    {
        "CCSDS_OMM_VERS": "3.0",
        "COMMENT": "GENERATED VIA SPACE-TRACK.ORG API",
        "CREATION_DATE": "2025-03-02T22:36:16",
        "ORIGINATOR": "18 SPCS",
        "OBJECT_NAME": "BEIDOU 3 IGSO-2",
        "OBJECT_ID": "2019-035A",
        "CENTER_NAME": "EARTH",
        "REF_FRAME": "TEME",
        "TIME_SYSTEM": "UTC",
        "MEAN_ELEMENT_THEORY": "SGP4",
        "EPOCH": "2025-03-02T20:37:47.494272",
        "MEAN_MOTION": "1.00258621",
        "ECCENTRICITY": "0.00365540",
        "INCLINATION": "55.1998",
        "RA_OF_ASC_NODE": "163.0008",
        "ARG_OF_PERICENTER": "201.1691",
        "MEAN_ANOMALY": "223.1247",
        "EPHEMERIS_TYPE": "0",
        "CLASSIFICATION_TYPE": "U",
        "NORAD_CAT_ID": "44337",
        "ELEMENT_SET_NO": "999",
        "REV_AT_EPOCH": "2097",
        "BSTAR": "0.00000000000000",
        "MEAN_MOTION_DOT": "-0.00000140",
        "MEAN_MOTION_DDOT": "0.0000000000000",
        "SEMIMAJOR_AXIS": "42168.423",
        "PERIOD": "1436.285",
        "APOAPSIS": "35944.430",
        "PERIAPSIS": "35636.145",
        "OBJECT_TYPE": "PAYLOAD",
        "RCS_SIZE": "LARGE",
        "COUNTRY_CODE": "PRC",
        "LAUNCH_DATE": "2019-06-24",
        "SITE": "XSC",
        "DECAY_DATE": null,
        "FILE": "4657269",
        "GP_ID": "282102768",
        "TLE_LINE0": "0 BEIDOU 3 IGSO-2",
        "TLE_LINE1": "1 44337U 19035A   25061.85957748 -.00000140  00000-0  00000+0 0  9991",
        "TLE_LINE2": "2 44337  55.1998 163.0008 0036554 201.1691 223.1247  1.00258621 20975"
    }
]